TOMORROW-S2             
1 60485U 24149T   26068.75188364  .00008133  00000+0  27683-3 0  9990
2 60485  97.3857 150.0385 0001648 234.3331 125.7757 15.30674935 86869
STARLINK-32618          
1 62045U 24216P   26068.82131346  .00023302  00000+0  85364-3 0  9990
2 62045  43.0003 255.7603 0001749 269.1618  90.9034 15.27578686 73898
